 "links": {
    "next": "https://api.nasa.gov/neo/rest/v1/feed?start_date=2017-08-10&end_date=2017-08-10&detailed=true&api_key=iLtewAxJtd6Mg251LRVKizhDSljCMaI1qoeZBOSD",
    "prev": "https://api.nasa.gov/neo/rest/v1/feed?start_date=2017-08-08&end_date=2017-08-08&detailed=true&api_key=iLtewAxJtd6Mg251LRVKizhDSljCMaI1qoeZBOSD",
    "self": "https://api.nasa.gov/neo/rest/v1/feed?start_date=2017-08-09&end_date=2017-08-09&detailed=true&api_key=iLtewAxJtd6Mg251LRVKizhDSljCMaI1qoeZBOSD"
  },
  "element_count": 7,
  "near_earth_objects": {
    "2017-08-09": [
      {
        "links": {
          "self": "https://api.nasa.gov/neo/rest/v1/neo/3736199?api_key=iLtewAxJtd6Mg251LRVKizhDSljCMaI1qoeZBOSD"
        },
        "neo_reference_id": "3736199",
        "name": "(2015 XO128)",
        "nasa_jpl_url": "http://ssd.jpl.nasa.gov/sbdb.cgi?sstr=3736199",
        "absolute_magnitude_h": 24.7,
        "estimated_diameter": {
          "kilometers": {
            "estimated_diameter_min": 0.0305179233,
            "estimated_diameter_max": 0.0682401509
          },
          "meters": {
            "estimated_diameter_min": 30.5179232594,
            "estimated_diameter_max": 68.2401509401
          },
          "miles": {
            "estimated_diameter_min": 0.0189629525,
            "estimated_diameter_max": 0.0424024508
          },
          "feet": {
            "estimated_diameter_min": 100.1244233463,
            "estimated_diameter_max": 223.8850168104
          }
        },
        "is_potentially_hazardous_asteroid": false,
        "close_approach_data": [
          {
            "close_approach_date": "2017-08-09",
            "epoch_date_close_approach": 1502262000000,
            "relative_velocity": {
              "kilometers_per_second": "11.2261147146",
              "kilometers_per_hour": "40414.0129725982",
              "miles_per_hour": "25111.6960051125"
            },
            "miss_distance": {
              "astronomical": "0.1042432533",
              "lunar": "40.5506248474",
              "kilometers": "15594569",
              "miles": "9690016"
            },
            "orbiting_body": "Earth"
          }
        ],
        "orbital_data": {
          "orbit_id": "4",
          "orbit_determination_date": "2017-04-06 08:30:10",
          "orbit_uncertainty": "8",
          "minimum_orbit_intersection": ".00756476",
          "jupiter_tisserand_invariant": "4.364",
          "epoch_osculation": "2457363.5",
          "eccentricity": ".3978517815045217",
          "semi_major_axis": "1.547041095253417",
          "inclination": "1.622983150578214",
          "ascending_node_longitude": "134.465358418758",
          "orbital_period": "702.8314751161744",
          "perihelion_distance": ".9315480394461383",
          "perihelion_argument": "239.1608897747285",
          "aphelion_distance": "2.162534151060695",
          "perihelion_time": "2457314.629374728830",
          "mean_anomaly": "25.03221002547317",
          "mean_motion": ".51221382756157",
          "equinox": "J2000"
        }
      },
      {
        "links": {
          "self": "https://api.nasa.gov/neo/rest/v1/neo/2010165?api_key=iLtewAxJtd6Mg251LRVKizhDSljCMaI1qoeZBOSD"
        },
        "neo_reference_id": "2010165",
        "name": "10165 (1995 BL2)",
        "nasa_jpl_url": "http://ssd.jpl.nasa.gov/sbdb.cgi?sstr=2010165",
        "absolute_magnitude_h": 17.3,
        "estimated_diameter": {
          "kilometers": {
            "estimated_diameter_min": 0.9216265485,
            "estimated_diameter_max": 2.0608196123
          },
          "meters": {
            "estimated_diameter_min": 921.6265485028,
            "estimated_diameter_max": 2060.8196123208
          },
          "miles": {
            "estimated_diameter_min": 0.5726720101,
            "estimated_diameter_max": 1.2805335433
          },
          "feet": {
            "estimated_diameter_min": 3023.70924539,
            "estimated_diameter_max": 6761.2194168867
          }
        },
        "is_potentially_hazardous_asteroid": false,
        "close_approach_data": [
          {
            "close_approach_date": "2017-08-09",
            "epoch_date_close_approach": 1502262000000,
            "relative_velocity": {
              "kilometers_per_second": "22.7100560493",
              "kilometers_per_hour": "81756.2017775718",
              "miles_per_hour": "50800.1243767362"
            },
            "miss_distance": {
              "astronomical": "0.3932449046",
              "lunar": "152.9722595215",
              "kilometers": "58828600",
              "miles": "36554396"
            },
            "orbiting_body": "Earth"
          }
        ],
        "orbital_data": {
          "orbit_id": "104",
          "orbit_determination_date": "2017-04-06 09:29:56",
          "orbit_uncertainty": "0",
          "minimum_orbit_intersection": ".375572",
          "jupiter_tisserand_invariant": "4.984",
          "epoch_osculation": "2458000.5",
          "eccentricity": ".5036969192312907",
          "semi_major_axis": "1.234758600037682",
          "inclination": "23.89340173752436",
          "ascending_node_longitude": "312.4480961375718",
          "orbital_period": "501.1543638808701",
          "perihelion_distance": ".6128144972043599",
          "perihelion_argument": "348.4316193993977",
          "aphelion_distance": "1.856702702871003",
          "perihelion_time": "2457967.294947440180",
          "mean_anomaly": "23.85256875539582",
          "mean_motion": ".7183415449328022",
          "equinox": "J2000"
        }
      },
      {
        "links": {
          "self": "https://api.nasa.gov/neo/rest/v1/neo/3778622?api_key=iLtewAxJtd6Mg251LRVKizhDSljCMaI1qoeZBOSD"
        },
        "neo_reference_id": "3778622",
        "name": "(2017 OT18)",
        "nasa_jpl_url": "http://ssd.jpl.nasa.gov/sbdb.cgi?sstr=3778622",
        "absolute_magnitude_h": 19.06,
        "estimated_diameter": {
          "kilometers": {
            "estimated_diameter_min": 0.4097839804,
            "estimated_diameter_max": 0.9163048363
          },
          "meters": {
            "estimated_diameter_min": 409.783980394,
            "estimated_diameter_max": 916.3048362514
          },
          "miles": {
            "estimated_diameter_min": 0.2546278817,
            "estimated_diameter_max": 0.5693652524
          },
          "feet": {
            "estimated_diameter_min": 1344.4356742358,
            "estimated_diameter_max": 3006.2495589671
          }
        },
        "is_potentially_hazardous_asteroid": false,
        "close_approach_data": [
          {
            "close_approach_date": "2017-08-09",
            "epoch_date_close_approach": 1502262000000,
            "relative_velocity": {
              "kilometers_per_second": "13.0767225544",
              "kilometers_per_hour": "47076.2011957914",
              "miles_per_hour": "29251.3206819072"
            },
            "miss_distance": {
              "astronomical": "0.3443068867",
              "lunar": "133.9353790283",
              "kilometers": "51507576",
              "miles": "32005324"
            },
            "orbiting_body": "Earth"
          }
        ],
        "orbital_data": {
          "orbit_id": "8",
          "orbit_determination_date": "2017-08-06 06:17:16",
          "orbit_uncertainty": "8",
          "minimum_orbit_intersection": ".300973",
          "jupiter_tisserand_invariant": "3.328",
          "epoch_osculation": "2457964.5",
          "eccentricity": ".4694198987974197",
          "semi_major_axis": "2.341089957543482",
          "inclination": "21.10380434625269",
          "ascending_node_longitude": "299.7086710573997",
          "orbital_period": "1308.354944047954",
          "perihelion_distance": "1.242135746597765",
          "perihelion_argument": "44.87504741723899",
          "aphelion_distance": "3.440044168489198",
          "perihelion_time": "2457996.539953467511",
          "mean_anomaly": "351.1840565125107",
          "mean_motion": ".2751546907341416",
          "equinox": "J2000"
        }
      },
      {
        "links": {
          "self": "https://api.nasa.gov/neo/rest/v1/neo/2190491?api_key=iLtewAxJtd6Mg251LRVKizhDSljCMaI1qoeZBOSD"
        },
        "neo_reference_id": "2190491",
        "name": "190491 (2000 FJ10)",
        "nasa_jpl_url": "http://ssd.jpl.nasa.gov/sbdb.cgi?sstr=2190491",
        "absolute_magnitude_h": 20.9,
        "estimated_diameter": {
          "kilometers": {
            "estimated_diameter_min": 0.1756123185,
            "estimated_diameter_max": 0.3926810818
          },
          "meters": {
            "estimated_diameter_min": 175.6123184804,
            "estimated_diameter_max": 392.6810818086
          },
          "miles": {
            "estimated_diameter_min": 0.1091204019,
            "estimated_diameter_max": 0.2440006365
          },
          "feet": {
            "estimated_diameter_min": 576.1559189633,
            "estimated_diameter_max": 1288.3238004408
          }
        },
        "is_potentially_hazardous_asteroid": false,
        "close_approach_data": [
          {
            "close_approach_date": "2017-08-09",
            "epoch_date_close_approach": 1502262000000,
            "relative_velocity": {
              "kilometers_per_second": "5.2903769406",
              "kilometers_per_hour": "19045.3569862419",
              "miles_per_hour": "11834.044178479"
            },
            "miss_distance": {
              "astronomical": "0.4054297699",
              "lunar": "157.7121887207",
              "kilometers": "60651432",
              "miles": "37687052"
            },
            "orbiting_body": "Earth"
          }
        ],
        "orbital_data": {
          "orbit_id": "69",
          "orbit_determination_date": "2017-07-16 06:22:49",
          "orbit_uncertainty": "0",
          "minimum_orbit_intersection": ".0548807",
          "jupiter_tisserand_invariant": "4.920",
